{
  "53893": {
    "noradId": "53893",
    "tle": [
      "1 53893C 22119H   25269.81645833  .00015314  00000+0  96019-3 0  2696",
      "2 53893  53.2171 339.7810 0001377  92.7493 324.3780 15.08826486    18"
    ]
  },
  "53894": {
    "noradId": "53894",
    "tle": [
      "1 53894C 22119J   25269.81576389  .00013254  00000+0  83108-3 0  2692",
      "2 53894  53.2171 339.8161 0001264  89.0518 309.4842 15.08827795    18"
    ]
  },
  "53895": {
    "noradId": "53895",
    "tle": [
      "1 53895C 22119K   25269.81576389  .00016842  00000+0  10562-2 0  2692",
      "2 53895  53.2164 339.6990 0001417  82.2092  16.4176 15.08817350    12"
    ]
  },
  "53896": {
    "noradId": "53896",
    "tle": [
      "1 53896C 22119L   25269.81784722  .00015604  00000+0  97842-3 0  2697",
      "2 53896  53.2161 339.6114 0001413  85.8253  64.1669 15.08825294    15"
    ]
  },
  "53897": {
    "noradId": "53897",
    "tle": [
      "1 53897C 22119M   25269.81645833  .00014892  00000+0  93397-3 0  2696",
      "2 53897  53.2170 339.7728 0001302  90.1494 332.2070 15.08819410    19"
    ]
  },
  "53898": {
    "noradId": "53898",
    "tle": [
      "1 53898C 22119N   25269.81576389  .00018710  00000+0  11732-2 0  2691",
      "2 53898  53.2159 339.5024 0001371  88.7236 110.0052 15.08823566    16"
    ]
  },
  "53899": {
    "noradId": "53899",
    "tle": [
      "1 53899C 22119P   25269.81923611  .00017895  00000+0  11221-2 0  2692",
      "2 53899  53.2161 339.5250 0001388  95.7775 101.8060 15.08823275    19"
    ]
  },
  "53900": {
    "noradId": "53900",
    "tle": [
      "1 53900C 22119Q   25269.82201389  .00015003  00000+0  94098-3 0  2690",
      "2 53900  53.2165 339.3948 0001169  88.0963 184.6803 15.08817481    15"
    ]
  },
  "53901": {
    "noradId": "53901",
    "tle": [
      "1 53901C 22119R   25269.83520833  .00017582  00000+0  54464-3 0  2697",
      "2 53901  53.2158 330.6328 0001544  72.2470  74.3936 15.32877289    10"
    ]
  },
  "53902": {
    "noradId": "53902",
    "tle": [
      "1 53902C 22119S   25269.81854167  .00004656  00000+0  29190-3 0  2692",
      "2 53902  53.2154 289.5212 0001362  88.4544 160.3498 15.08839475    17"
    ]
  },
  "53903": {
    "noradId": "53903",
    "tle": [
      "1 53903C 22119T   25269.82548611  .00013992  00000+0  87732-3 0  2697",
      "2 53903  53.2162 339.5446 0001385  88.3930 117.9168 15.08828822    11"
    ]
  },
  "53904": {
    "noradId": "53904",
    "tle": [
      "1 53904C 22119U   25269.81993056  .00017860  00000+0  11192-2 0  2698",
      "2 53904  53.2169 339.3646 0001406  89.4121 191.9299 15.08846376    18"
    ]
  },
  "53905": {
    "noradId": "53905",
    "tle": [
      "1 53905C 22119V   25269.81645833  .00007727  00000+0  48452-3 0  2697",
      "2 53905  53.2154 330.0011 0001354  87.3536 229.8446 15.08831716    13"
    ]
  },
  "53906": {
    "noradId": "53906",
    "tle": [
      "1 53906C 22119W   25269.81854167  .00010052  00000+0  63027-3 0  2690",
      "2 53906  53.2160 329.4875 0001352  91.8463 136.9930 15.08833381    14"
    ]
  },
  "53908": {
    "noradId": "53908",
    "tle": [
      "1 53908C 22119Y   25269.81506944  .00011060  00000+0  69351-3 0  2695",
      "2 53908  53.2160 329.9280 0001358  87.3802 262.3018 15.08830961    16"
    ]
  },
  "53909": {
    "noradId": "53909",
    "tle": [
      "1 53909C 22119Z   25269.81923611  .00011188  00000+0  70136-3 0  2694",
      "2 53909  53.2159 330.0272 0001336  83.0453 229.1942 15.08836815    11"
    ]
  },
  "53910": {
    "noradId": "53910",
    "tle": [
      "1 53910C 22119AA  25269.81229167  .00418090  00000+0  89567-2 0  2691",
      "2 53910  53.2032 262.1773 0001441  79.0678 276.1061 15.43765394    11"
    ]
  },
  "53911": {
    "noradId": "53911",
    "tle": [
      "1 53911C 22119AB  25269.82131944  .00013239  00000+0  83034-3 0  2698",
      "2 53911  53.2162 329.9386 0001478  81.3333 282.3136 15.08818552    10"
    ]
  },
  "53912": {
    "noradId": "53912",
    "tle": [
      "1 53912C 22119AC  25269.81715278  .00013763  00000+0  86343-3 0  2694",
      "2 53912  53.2157 329.4163 0001407  92.4717 168.9501 15.08807225    14"
    ]
  },
  "53913": {
    "noradId": "53913",
    "tle": [
      "1 53913C 22119AD  25269.81506944  .00014442  00000+0  90550-3 0  2693",
      "2 53913  53.2172 329.7691 0001445  89.1052 340.6780 15.08828624    12"
    ]
  },
  "53914": {
    "noradId": "53914",
    "tle": [
      "1 53914C 22119AE  25269.81506944  .00014056  00000+0  88144-3 0  2691",
      "2 53914  53.2174 329.7334 0001287  90.7611 359.0684 15.08823736    18"
    ]
  },
  "53915": {
    "noradId": "53915",
    "tle": [
      "1 53915C 22119AF  25269.81784722  .00015717  00000+0  98632-3 0  2692",
      "2 53915  53.2162 329.8756 0001413  92.1537 292.6762 15.08796011    13"
    ]
  },
  "53916": {
    "noradId": "53916",
    "tle": [
      "1 53916C 22119AG  25269.81784722 -.00099256  00000+0 -62241-2 0  2691",
      "2 53916  53.2156 309.4273 0001330  88.9681 206.1767 15.08937703    16"
    ]
  },
  "53917": {
    "noradId": "53917",
    "tle": [
      "1 53917C 22119AH  25269.81506944  .00014275  00000+0  89494-3 0  2696",
      "2 53917  53.2169 329.8087 0001445  90.8403 318.9094 15.08831259    15"
    ]
  },
  "53918": {
    "noradId": "53918",
    "tle": [
      "1 53918C 22119AJ  25269.81576389  .00010063  00000+0  63083-3 0  2694",
      "2 53918  53.2176 329.6868 0001282  90.1237  23.4794 15.08839008    11"
    ]
  },
  "53919": {
    "noradId": "53919",
    "tle": [
      "1 53919C 22119AK  25269.81993056  .00010968  00000+0  68773-3 0  2694",
      "2 53919  53.2173 329.6273 0001397  92.6749  63.6303 15.08829334    14"
    ]
  },
  "53920": {
    "noradId": "53920",
    "tle": [
      "1 53920C 22119AL  25269.81715278  .00013991  00000+0  87737-3 0  2694",
      "2 53920  53.2167 329.8433 0001293  92.6602 303.1992 15.08822001    12"
    ]
  },
  "53922": {
    "noradId": "53922",
    "tle": [
      "1 53922C 22119AN  25269.81506944  .00009588  00000+0  60123-3 0  2691",
      "2 53922  53.2170 329.5306 0001387  89.5334 100.4291 15.08828647    17"
    ]
  },
  "53923": {
    "noradId": "53923",
    "tle": [
      "1 53923C 22119AP  25269.81715278  .00015433  00000+0  96780-3 0  2698",
      "2 53923  53.2172 329.6020 0001160  74.2966  86.9248 15.08821364    14"
    ]
  },
  "53924": {
    "noradId": "53924",
    "tle": [
      "1 53924C 22119AQ  25269.81506944  .00010734  00000+0  67342-3 0  2698",
      "2 53924  53.2165 324.6907 0001194  95.4830  21.9251 15.08811571    10"
    ]
  },
  "53925": {
    "noradId": "53925",
    "tle": [
      "1 53925C 22119AR  25269.81715278  .00015950  00000+0  10002-2 0  2696",
      "2 53925  53.2156 329.3770 0001394  87.0667 194.2960 15.08821447    12"
    ]
  },
  "53926": {
    "noradId": "53926",
    "tle": [
      "1 53926C 22119AS  25269.81993056  .00005039  00000+0  31585-3 0  2696",
      "2 53926  53.2173 324.5479 0001294  82.1628 121.6422 15.08847422    15"
    ]
  },
  "53927": {
    "noradId": "53927",
    "tle": [
      "1 53927C 22119AT  25269.83729167  .00270390  00000+0  17022-2 0  2692",
      "2 53927  53.1854 243.2095 0005872  36.7564 354.3185 15.75710750    10"
    ]
  },
  "53928": {
    "noradId": "53928",
    "tle": [
      "1 53928C 22119AU  25269.81576389  .00006673  00000+0  41839-3 0  2692",
      "2 53928  53.2156 319.6826 0001361  87.8852  40.7307 15.08835617    11"
    ]
  },
  "53929": {
    "noradId": "53929",
    "tle": [
      "1 53929C 22119AV  25269.45048611 -.00002896  00000+0 -18160-3 0  2691",
      "2 53929  53.2162 331.7964 0001380  88.1123 314.8043 15.08835732    13"
    ]
  },
  "53930": {
    "noradId": "53930",
    "tle": [
      "1 53930C 22119AW  25269.81993056  .00011805  00000+0  74018-3 0  2697",
      "2 53930  53.2165 319.5048 0001314  91.3550 139.9977 15.08831919    17"
    ]
  },
  "53931": {
    "noradId": "53931",
    "tle": [
      "1 53931C 22119AX  25269.83729167  .00016012  00000+0  51079-3 0  2697",
      "2 53931  53.2121 312.6111 0000881  82.5126 105.5241 15.31944298    18"
    ]
  },
  "53932": {
    "noradId": "53932",
    "tle": [
      "1 53932C 22119AY  25269.82062500  .00012435  00000+0  77975-3 0  2696",
      "2 53932  53.2161 314.8518 0001332  87.2072 335.2207 15.08827484    17"
    ]
  },
  "53933": {
    "noradId": "53933",
    "tle": [
      "1 53933C 22119AZ  25269.82201389  .00009535  00000+0  59798-3 0  2697",
      "2 53933  53.2158 319.6145 0001376  87.4469  95.1563 15.08825838    11"
    ]
  },
  "53934": {
    "noradId": "53934",
    "tle": [
      "1 53934C 22119BA  25269.82062500 -.00078502  00000+0 -49204-2 0  2690",
      "2 53934  53.2158 314.8097 0001380  87.3245 355.1324 15.08933541    16"
    ]
  },
  "53935": {
    "noradId": "53935",
    "tle": [
      "1 53935C 22119BB  25269.82270833  .00003112  00000+0  19518-3 0  2690",
      "2 53935  53.2159 304.6310 0001431  88.9885  99.8971 15.08834391    10"
    ]
  },
  "53936": {
    "noradId": "53936",
    "tle": [
      "1 53936C 22119BC  25269.44840278  .00012228  00000+0  76720-3 0  2691",
      "2 53936  53.2160 316.1672 0001237  86.7868 292.9175 15.08805521    18"
    ]
  },
  "53964": {
    "noradId": "53964",
    "tle": [
      "1 53964C 22125A   25269.81923611  .00002025  00000+0  12697-3 0  2690",
      "2 53964  53.2145 239.9206 0001387  87.8842 179.4443 15.08835940    12"
    ]
  },
  "53965": {
    "noradId": "53965",
    "tle": [
      "1 53965C 22125B   25269.81784722 -.00011046  00000+0 -69267-3 0  2699",
      "2 53965  53.2147 239.8978 0001381  88.7548 185.8188 15.08850615    10"
    ]
  },
  "53966": {
    "noradId": "53966",
    "tle": [
      "1 53966C 22125C   25269.81715278  .00001282  00000+0  80396-4 0  2696",
      "2 53966  53.2151 239.8509 0001382  93.0357 203.0120 15.08835480    16"
    ]
  }
}